[{"OBJECT_NAME":"STARLINK-1500","OBJECT_ID":"2020-038Q","EPOCH":"2026-03-09T14:42:05.855328","MEAN_MOTION":15.34798508,"ECCENTRICITY":0.0001932,"INCLINATION":53.0377,"RA_OF_ASC_NODE":193.1151,"ARG_OF_PERICENTER":252.7166,"MEAN_ANOMALY":107.3624,"EPHEMERIS_TYPE":0,"CLASSIFICATION_TYPE":"U","NORAD_CAT_ID":45744,"ELEMENT_SET_NO":999,"REV_AT_EPOCH":31680,"BSTAR":0.0008861,"MEAN_MOTION_DOT":0.00030067,"MEAN_MOTION_DDOT":0},{"OBJECT_NAME":"TAURUS R\/B","OBJECT_ID":"2000-014B","EPOCH":"2026-03-09T17:34:52.155840","MEAN_MOTION":15.39389421,"ECCENTRICITY":0.00149672,"INCLINATION":97.4179,"RA_OF_ASC_NODE":3.0855,"ARG_OF_PERICENTER":325.8693,"MEAN_ANOMALY":34.1589,"EPHEMERIS_TYPE":0,"CLASSIFICATION_TYPE":"U","NORAD_CAT_ID":26103,"ELEMENT_SET_NO":999,"REV_AT_EPOCH":43012,"BSTAR":0.00036037476,"MEAN_MOTION_DOT":0.0001407,"MEAN_MOTION_DDOT":0}]
